ONEWEB-0414             
1 50491U 21132Y   24351.19048696  .00000109  00000+0  24290-3 0  9995
2 50491  87.9109  84.4787 0001837  95.4362 264.6980 13.18689463150696
ONEWEB-0417             
1 50492U 21132Z   24350.51549113  .00000054  00000+0  10328-3 0  9997
2 50492  87.9119  84.6288 0001959 106.6949 253.4399 13.18684250150584
ONEWEB-0418             
1 50493U 21132AA  24351.66299996  .00000022  00000+0  22421-4 0  9999
2 50493  87.9110  84.3962 0002126 107.4243 252.7122 13.18688950149502
ONEWEB-0419             
1 50494U 21132AB  24351.68052527  .00000163  00000+0  38176-3 0  9998
2 50494  87.9107  84.4030 0001858 115.3991 244.7333 13.18687016149423
ONEWEB-0420             
1 50495U 21132AC  24351.19206621  .00000096  00000+0  21175-3 0  9997
2 50495  87.9109  84.5096 0001459  99.7921 260.3376 13.18684888150656
ONEWEB-0421             
1 50496U 21132AD  24351.71687966  .00000124  00000+0  28158-3 0  9991
2 50496  87.9108  84.3847 0001760  92.7194 267.4139 13.18684162149465
ONEWEB-0424             
1 50497U 21132AE  24351.67578910  .00000037  00000+0  62194-4 0  9997
2 50497  87.9112  84.3900 0001770 120.7156 239.4151 13.18687203149486
ONEWEB-0426             
1 50498U 21132AF  24351.71371885  .00000109  00000+0  24312-3 0  9994
2 50498  87.9105  84.3929 0002334  97.8561 262.2837 13.18683857149432
